GLOBALSTAR M084         
1 38040U 11080A   24116.53815220 -.00000080  00000+0  13374-3 0  9994
2 38040  52.0004 239.9474 0000687 147.0721 293.5933 12.62273800569925
GLOBALSTAR M080         
1 38041U 11080B   24116.67602681 -.00000078  00000+0  14107-3 0  9997
2 38041  52.0059 240.9899 0000906 147.1403 319.1278 12.62271685570064
GLOBALSTAR M082         
1 38042U 11080C   24116.61918149 -.00000042  00000+0  34509-3 0  9990
2 38042  52.0065 196.5660 0000459  36.6897 110.8563 12.62268736570769
GLOBALSTAR M092         
1 38043U 11080D   24116.65682118 -.00000062  00000+0  23143-3 0  9993
2 38043  52.0082 286.8037 0000579 125.9511 313.8327 12.62279240569222
GLOBALSTAR M090         
1 38044U 11080E   24116.94030491 -.00000034  00000+0  38729-3 0  9992
2 38044  51.9875 189.9334 0000374  74.1472 334.4315 12.62262389570963
GLOBALSTAR M097         
1 39072U 13005A   24116.34930340 -.00000111  00000+0 -41679-4 0  9995
2 39072  52.0030 106.3737 0000623  63.0382 297.0548 12.62262585518045
GLOBALSTAR M093         
1 39073U 13005B   24117.11451486 -.00000105  00000+0 -55875-5 0  9998
2 39073  51.9800  98.0133 0000679  62.2696 297.8239 12.62263568518212
